NORAD_CAT_ID,OBJECT_NAME,OBJECT_TYPE,EPOCH,MEAN_MOTION,ECCENTRICITY,INCLINATION,RA_OF_ASC_NODE,ARG_OF_PERICENTER,MEAN_ANOMALY,BSTAR,MEAN_MOTION_DOT,MEAN_MOTION_DDOT,TLE_LINE0,TLE_LINE1,TLE_LINE2,SEMIMAJOR_AXIS,PERIOD,APOGEE,PERIGEE,DECAYED
53714.0,STARLINK-4688,PAYLOAD,2022-11-18 14:00:01,15.73180385,0.0008548999999999,53.2139,264.4701,277.1479,336.8773,0.00028809,0.00040045,0.0,0 STARLINK-4688,1 53714U 22107Q   22322.58334491  .00040045  00000-0  28809-3 0  9993,2 53714  53.2139 264.4701 0008549 277.1479 336.8773 15.73180385 11844,6727.951,91.534,355.5680000000001,344.064,0.0
53714.0,STARLINK-4688,PAYLOAD,2022-11-18 22:00:00,15.73259032,0.0008517,53.2142,262.8203,277.2397,65.6938,-0.00027647,-0.00039441,0.0,0 STARLINK-4688,1 53714U 22107Q   22322.91667824 -.00039441  00000-0 -27647-3 0  9998,2 53714  53.2142 262.8203 0008517 277.2397  65.6938 15.73259032  1308,6727.727,91.53,355.32199999999995,343.862,0.0
53714.0,STARLINK-4688,PAYLOAD,2022-11-19 14:00:01,15.73215382,0.0008634,53.2143,259.5209,277.5657,243.3099,-9.662e-05,-0.00014211,0.0,0 STARLINK-4688,1 53714U 22107Q   22323.58334491 -.00014211  00000-0 -96620-4 0  9999,2 53714  53.2143 259.5209 0008634 277.5657 243.3099 15.73215382  1303,6727.851,91.532,355.525,343.907,0.0
53714.0,STARLINK-4688,PAYLOAD,2022-11-19 22:00:00,15.73227157,0.0008583,53.2163,257.872,278.2341,331.6206,-0.0016018,-0.0022052,0.0,0 STARLINK-4688,1 53714U 22107Q   22323.91667824 -.00220520  00000-0 -16018-2 0  9998,2 53714  53.2163 257.8720 0008583 278.2341 331.6206 15.73227157  1309,6727.818,91.532,355.457,343.908,0.0
53714.0,STARLINK-4688,PAYLOAD,2022-11-20 06:00:00,15.7320437,0.0008652,53.2137,256.2235,278.0179,60.7753,0.00023966,0.00033216,0.0,0 STARLINK-4688,1 53714U 22107Q   22324.25001157  .00033216  00000-0  23966-3 0  9990,2 53714  53.2137 256.2235 0008652 278.0179  60.7753 15.73204370 12107,6727.8830000000025,91.533,355.569,343.927,0.0
53714.0,STARLINK-4688,PAYLOAD,2022-11-20 14:00:01,15.73159632,0.0008711999999999,53.2139,254.5719,276.1386,151.6066,0.00038832,0.00054244,0.0,0 STARLINK-4688,1 53714U 22107Q   22324.58334491  .00054244  00000-0  38832-3 0  9998,2 53714  53.2139 254.5719 0008712 276.1386 151.6066 15.73159632 12166,6728.01,91.536,355.737,344.014,0.0
53714.0,STARLINK-4688,PAYLOAD,2022-11-20 22:00:00,15.7324704,0.0008594,53.2142,252.9226,276.2334,240.4043,-0.00066909,-0.00093917,0.0,0 STARLINK-4688,1 53714U 22107Q   22324.91667824 -.00093917  00000-0 -66909-3 0  9992,2 53714  53.2142 252.9226 0008594 276.2334 240.4043 15.73247040  1304,6727.761,91.53,355.408,343.844,0.0
53714.0,STARLINK-4688,PAYLOAD,2022-11-21 08:00:01,15.73217432,0.0008734,53.214,250.8619,276.8448,80.9755,-0.00077716,-0.0010867,0.0,0 STARLINK-4688,1 53714U 22107Q   22325.33334491 -.00108670  00000-0 -77716-3 0  9991,2 53714  53.2140 250.8619 0008734 276.8448  80.9755 15.73217432 12281,6727.845,91.532,355.587,343.834,0.0
53714.0,STARLINK-4688,PAYLOAD,2022-11-21 14:00:01,15.73110991,0.0008647,53.2144,249.6231,274.6723,59.8493,0.0001888,0.00025905,0.0,0 STARLINK-4688,1 53714U 22107Q   22325.58334491  .00025905  00000-0  18880-3 0  9992,2 53714  53.2144 249.6231 0008647 274.6723  59.8493 15.73110991  1303,6728.149,91.538,355.832,344.196,0.0
53714.0,STARLINK-4688,PAYLOAD,2022-11-21 22:00:00,15.73155042,0.0008497,53.2143,247.9744,275.5821,147.7598,0.00081227,0.00114938,0.0,0 STARLINK-4688,1 53714U 22107Q   22325.91667824  .00114938  00000-0  81227-3 0  9998,2 53714  53.2143 247.9744 0008497 275.5821 147.7598 15.73155042  1303,6728.023,91.536,355.605,344.172,0.0
53714.0,STARLINK-4688,PAYLOAD,2022-11-22 08:00:01,15.73261918,0.0008506999999999,53.2135,245.9134,276.7464,347.7514,-0.00053023,-0.00074765,0.0,0 STARLINK-4688,1 53714U 22107Q   22326.33334491 -.00074765  00000-0 -53023-3 0  9994,2 53714  53.2135 245.9134 0008507 276.7464 347.7514 15.73261918 12439,6727.719,91.53,355.307,343.86,0.0
53714.0,STARLINK-4688,PAYLOAD,2022-11-22 14:00:01,15.73195434,0.0008533,53.2139,244.6746,274.8396,326.4636,-0.00018686,-0.00026829,0.0,0 STARLINK-4688,1 53714U 22107Q   22326.58335648 -.00026829  00000-0 -18686-3 0  9990,2 53714  53.2139 244.6746 0008533 274.8396 326.4636 15.73195434  1302,6727.908,91.533,355.514,344.032,0.0
53714.0,STARLINK-4688,PAYLOAD,2022-11-22 22:00:00,15.73213652,0.0008527999999999,53.2141,243.0258,275.0689,55.0748,-8.363600000000001e-05,-0.00012387,0.0,0 STARLINK-4688,1 53714U 22107Q   22326.91667824 -.00012387  00000-0 -83636-4 0  9993,2 53714  53.2141 243.0258 0008528 275.0689  55.0748 15.73213652 12526,6727.856,91.532,355.459,343.9840000000001,0.0
53714.0,STARLINK-4688,PAYLOAD,2022-11-23 14:00:01,15.73127374,0.0008714,53.214,239.7262,274.6912,233.318,0.00032951,0.00045824,0.0,0 STARLINK-4688,1 53714U 22107Q   22327.58334491  .00045824  00000-0  32951-3 0  9991,2 53714  53.2140 239.7262 0008714 274.6912 233.3180 15.73127374  1303,6728.102,91.537,355.83,344.10400000000016,0.0
53714.0,STARLINK-4688,PAYLOAD,2022-11-23 16:00:00,15.731098199999998,0.0008663,53.2139,239.3135,274.396,345.8345,0.00067008,0.00094302,0.0,0 STARLINK-4688,1 53714U 22107Q   22327.66667824  .00094302  00000-0  67008-3 0  9995,2 53714  53.2139 239.3135 0008663 274.3960 345.8345 15.73109820 12646,6728.151999999999,91.538,355.846,344.189,0.0
53714.0,STARLINK-4688,PAYLOAD,2022-11-23 22:00:00,15.73176566,0.0008607,53.2138,238.0778,275.9192,320.9462,0.0001682,0.00023067,0.0,0 STARLINK-4688,1 53714U 22107Q   22327.91667824  .00023067  00000-0  16820-3 0  9999,2 53714  53.2138 238.0778 0008607 275.9192 320.9462 15.73176566  1302,6727.962,91.535,355.61800000000005,344.036,0.0
53714.0,STARLINK-4688,PAYLOAD,2022-11-24 08:00:01,15.73209889,0.0008657,53.2137,236.0165,278.2413,159.7507,0.00019503,0.00026899,0.0,0 STARLINK-4688,1 53714U 22107Q   22328.33334491  .00026899  00000-0  19503-3 0  9994,2 53714  53.2137 236.0165 0008657 278.2413 159.7507 15.73209889 12750,6727.8669999999975,91.533,355.556,343.908,0.0
53714.0,STARLINK-4688,PAYLOAD,2022-11-24 14:00:01,15.73200743,0.000867,53.2143,234.778,277.0261,137.6862,0.00068338,0.00096589,0.0,0 STARLINK-4688,1 53714U 22107Q   22328.58334491  .00096589  00000-0  68338-3 0  9994,2 53714  53.2143 234.7780 0008670 277.0261 137.6862 15.73200743  1306,6727.893,91.533,355.591,343.925,0.0
53714.0,STARLINK-4688,PAYLOAD,2022-11-24 22:00:00,15.73303188,0.0008602,53.2151,233.1296,278.0944,225.5749,-0.00068748,-0.00096682,0.0,0 STARLINK-4688,1 53714U 22107Q   22328.91667824 -.00096682  00000-0 -68748-3 0  9991,2 53714  53.2151 233.1296 0008602 278.0944 225.5749 15.73303188  1302,6727.601,91.527,355.25300000000016,343.67900000000014,0.0
53714.0,STARLINK-4688,PAYLOAD,2022-11-25 14:00:01,15.7320636,0.0008766,53.2148,229.8295,276.8022,44.8523,0.00013881,0.00018942,0.0,0 STARLINK-4688,1 53714U 22107Q   22329.58334491  .00018942  00000-0  13881-3 0  9995,2 53714  53.2148 229.8295 0008766 276.8022  44.8523 15.73206360 12941,6727.877,91.533,355.64,343.844,0.0
53714.0,STARLINK-4688,PAYLOAD,2022-11-25 22:00:00,15.73201886,0.0008699,53.2145,228.1812,277.3943,133.2188,0.0001267,0.00017227,0.0,0 STARLINK-4688,1 53714U 22107Q   22329.91667824  .00017227  00000-0  12670-3 0  9991,2 53714  53.2145 228.1812 0008699 277.3943 133.2188 15.73201886  1304,6727.89,91.533,355.607,343.902,0.0
53714.0,STARLINK-4688,PAYLOAD,2022-11-26 14:00:01,15.73182962,0.0008798,53.2137,224.8808,276.4119,312.0982,0.00078062,0.00110527,0.0,0 STARLINK-4688,1 53714U 22107Q   22330.58334491  .00110527  00000-0  78062-3 0  9991,2 53714  53.2137 224.8808 0008798 276.4119 312.0982 15.73182962 13101,6727.944,91.534,355.728,343.89,0.0
53714.0,STARLINK-4688,PAYLOAD,2022-11-26 22:00:00,15.73281672,0.0008727,53.2138,223.2327,277.128,40.3146,-0.00095735,-0.00133701,0.0,0 STARLINK-4688,1 53714U 22107Q   22330.91667824 -.00133701  00000-0 -95735-3 0  9994,2 53714  53.2138 223.2327 0008727 277.1280  40.3146 15.73281672 13156,6727.6619999999975,91.528,355.399,343.656,0.0
53714.0,STARLINK-4688,PAYLOAD,2022-11-27 06:00:00,15.73183973,0.0008832,53.2136,221.5836,277.5504,128.8587,9.4381e-05,0.00012655,0.0,0 STARLINK-4688,1 53714U 22107Q   22331.25001157  .00012655  00000-0  94381-4 0  9992,2 53714  53.2136 221.5836 0008832 277.5504 128.8587 15.73183973 13213,6727.941,91.534,355.74800000000016,343.86400000000015,0.0
53714.0,STARLINK-4688,PAYLOAD,2022-11-27 14:00:01,15.73129754,0.0008818999999999,53.2137,219.9321,275.9068,219.4182,0.00039858,0.00055635,0.0,0 STARLINK-4688,1 53714U 22107Q   22331.58334491  .00055635  00000-0  39858-3 0  9990,2 53714  53.2137 219.9321 0008819 275.9068 219.4182 15.73129754  1308,6728.095,91.537,355.894,344.027,0.0
53714.0,STARLINK-4688,PAYLOAD,2022-11-27 22:00:00,15.73172415,0.0008738,53.2136,218.2844,277.8517,306.3411,0.00017923,0.00024623,0.0,0 STARLINK-4688,1 53714U 22107Q   22331.91667824  .00024623  00000-0  17923-3 0  9998,2 53714  53.2136 218.2844 0008738 277.8517 306.3411 15.73172415  1302,6727.974,91.535,355.718,343.96,0.0
53714.0,STARLINK-4688,PAYLOAD,2022-11-28 14:00:01,15.73185186,0.0008763999999999,53.2131,214.9835,276.3597,125.6938,0.00015155,0.00020724,0.0,0 STARLINK-4688,1 53714U 22107Q   22332.58334491  .00020724  00000-0  15155-3 0  9996,2 53714  53.2131 214.9835 0008764 276.3597 125.6938 15.73185186 13422,6727.937,91.534,355.699,343.906,0.0
53714.0,STARLINK-4688,PAYLOAD,2022-11-28 22:00:01,15.73176553,0.0008757999999999,53.2132,213.3356,277.7409,213.2983,3.5691e-05,4.385e-05,0.0,0 STARLINK-4688,1 53714U 22107Q   22332.91668981  .00004385  00000-0  35691-4 0  9990,2 53714  53.2132 213.3356 0008758 277.7409 213.2983 15.73176553  1300,6727.962,91.535,355.719,343.935,0.0
53714.0,STARLINK-4688,PAYLOAD,2022-11-29 14:00:01,15.7323669,0.0008773,53.2136,210.0347,277.1446,31.744,-0.00063137,-0.00088682,0.0,0 STARLINK-4688,1 53714U 22107Q   22333.58335648 -.00088682  00000-0 -63137-3 0  9994,2 53714  53.2136 210.0347 0008773 277.1446  31.7440 15.73236690 13572,6727.791,91.531,355.55800000000005,343.75300000000016,0.0
